ATLAS CENTAUR 2         
1 00694U 63047A   26023.58263622  .00002183  00000+0  25769-3 0  9991
2 00694  30.3533  87.6963 0548194  42.8181 321.3810 14.11934913125240
THOR AGENA D R/B        
1 00733U 64002A   26023.72730903  .00000387  00000+0  15518-3 0  9999
2 00733  99.1226  34.6186 0033419  30.9098 329.4043 14.33988573231856
SL-3 R/B                
1 00877U 64053B   26023.93523864  .00000750  00000+0  16943-3 0  9990
2 00877  65.0771 102.4434 0077267 306.4884  52.9114 14.61318355260254
SL-8 R/B                
1 02802U 67045B   26023.86974939  .00000592  00000+0  17121-3 0  9992
2 02802  74.0103  71.7929 0062825  89.8382 270.9975 14.45581414 82540
SL-8 R/B                
1 03230U 68040B   26023.78261241  .00004895  00000+0  36518-3 0  9991
2 03230  74.0307  45.4266 0026000 241.0028 118.8555 15.02879319 83260
OAO 2                   
1 03597U 68110A   26023.73373412  .00000514  00000+0  14370-3 0  9990
2 03597  34.9922 156.2158 0005671 203.7804 156.2625 14.47275139 12582
ISIS 1                  
1 03669U 69009A   26023.75315556  .00000699  00000+0  49222-3 0  9993
2 03669  88.4535 160.2054 1707834 179.8359 180.3625 11.30386790343451
SERT 2                  
1 04327U 70009A   26023.84394674  .00000085  00000+0  17233-3 0  9991
2 04327  99.2704 329.4055 0004062 283.8915  89.3424 13.58724538773806
SL-3 R/B                
1 05118U 71028B   26023.92824571  .00049839  00000+0  66793-3 0  9990
2 05118  81.2366 107.1686 0018037  90.3386 269.9932 15.57567463981692
ASTEX 1                 
1 05560U 71089A   26023.36776647  .00001243  00000+0  31633-3 0  9998
2 05560  92.7156 137.0934 0013786 232.4924 127.5030 14.50706860855739
SL-8 R/B                
1 05730U 71119B   26023.89734987  .00010219  00000+0  53077-3 0  9999
2 05730  73.8862 259.3698 0555512 235.1491 119.6232 14.36648117649050
OAO 3 (COPERNICUS)      
1 06153U 72065A   26023.89139414  .00000814  00000+0  17162-3 0  9999
2 06153  35.0038 192.5404 0006264 159.8125 354.4781 14.59952704839648
