CCSDS_OMM_VERS = 2.0
CREATION_DATE  = 
ORIGINATOR     = 

OBJECT_NAME    = ATLAS CENTAUR 2
OBJECT_ID      = 1963-047A
CENTER_NAME    = EARTH
REF_FRAME      = TEME
TIME_SYSTEM    = UTC
MEAN_ELEMENT_THEORY = SGP/SGP4

EPOCH          = 2026-01-23T13:58:59.769408
MEAN_MOTION    = 14.11934913
ECCENTRICITY   = .05481944
INCLINATION    = 30.3533
RA_OF_ASC_NODE = 87.6963
ARG_OF_PERICENTER = 42.8181
MEAN_ANOMALY   = 321.3810

EPHEMERIS_TYPE = 0
CLASSIFICATION_TYPE = U
NORAD_CAT_ID   = 694
ELEMENT_SET_NO = 999
REV_AT_EPOCH   = 12524
BSTAR          = .25768899E-3
MEAN_MOTION_DOT = .2183E-4
MEAN_MOTION_DDOT = 0

CCSDS_OMM_VERS = 2.0
CREATION_DATE  = 
ORIGINATOR     = 

OBJECT_NAME    = THOR AGENA D R/B
OBJECT_ID      = 1964-002A
CENTER_NAME    = EARTH
REF_FRAME      = TEME
TIME_SYSTEM    = UTC
MEAN_ELEMENT_THEORY = SGP/SGP4

EPOCH          = 2026-01-23T17:27:19.500192
MEAN_MOTION    = 14.33988573
ECCENTRICITY   = .00334193
INCLINATION    = 99.1226
RA_OF_ASC_NODE = 34.6186
ARG_OF_PERICENTER = 30.9098
MEAN_ANOMALY   = 329.4043

EPHEMERIS_TYPE = 0
CLASSIFICATION_TYPE = U
NORAD_CAT_ID   = 733
ELEMENT_SET_NO = 999
REV_AT_EPOCH   = 23185
BSTAR          = .15518169E-3
MEAN_MOTION_DOT = .387E-5
MEAN_MOTION_DDOT = 0

CCSDS_OMM_VERS = 2.0
CREATION_DATE  = 
ORIGINATOR     = 

OBJECT_NAME    = SL-3 R/B
OBJECT_ID      = 1964-053B
CENTER_NAME    = EARTH
REF_FRAME      = TEME
TIME_SYSTEM    = UTC
MEAN_ELEMENT_THEORY = SGP/SGP4

EPOCH          = 2026-01-23T22:26:44.618496
MEAN_MOTION    = 14.61318355
ECCENTRICITY   = .00772676
INCLINATION    = 65.0771
RA_OF_ASC_NODE = 102.4434
ARG_OF_PERICENTER = 306.4884
MEAN_ANOMALY   = 52.9114

EPHEMERIS_TYPE = 0
CLASSIFICATION_TYPE = U
NORAD_CAT_ID   = 877
ELEMENT_SET_NO = 999
REV_AT_EPOCH   = 26025
BSTAR          = .16943322E-3
MEAN_MOTION_DOT = .75E-5
MEAN_MOTION_DDOT = 0

CCSDS_OMM_VERS = 2.0
CREATION_DATE  = 
ORIGINATOR     = 

OBJECT_NAME    = SL-8 R/B
OBJECT_ID      = 1967-045B
CENTER_NAME    = EARTH
REF_FRAME      = TEME
TIME_SYSTEM    = UTC
MEAN_ELEMENT_THEORY = SGP/SGP4

EPOCH          = 2026-01-23T20:52:26.347296
MEAN_MOTION    = 14.45581414
ECCENTRICITY   = .00628251
INCLINATION    = 74.0103
RA_OF_ASC_NODE = 71.7929
ARG_OF_PERICENTER = 89.8382
MEAN_ANOMALY   = 270.9975

EPHEMERIS_TYPE = 0
CLASSIFICATION_TYPE = U
NORAD_CAT_ID   = 2802
ELEMENT_SET_NO = 999
REV_AT_EPOCH   = 8254
BSTAR          = .17121058E-3
MEAN_MOTION_DOT = .592E-5
MEAN_MOTION_DDOT = 0

CCSDS_OMM_VERS = 2.0
CREATION_DATE  = 
ORIGINATOR     = 

OBJECT_NAME    = SL-8 R/B
OBJECT_ID      = 1968-040B
CENTER_NAME    = EARTH
REF_FRAME      = TEME
TIME_SYSTEM    = UTC
MEAN_ELEMENT_THEORY = SGP/SGP4

EPOCH          = 2026-01-23T18:46:57.712224
MEAN_MOTION    = 15.02879319
ECCENTRICITY   = .00260005
INCLINATION    = 74.0307
RA_OF_ASC_NODE = 45.4266
ARG_OF_PERICENTER = 241.0028
MEAN_ANOMALY   = 118.8555

EPHEMERIS_TYPE = 0
CLASSIFICATION_TYPE = U
NORAD_CAT_ID   = 3230
ELEMENT_SET_NO = 999
REV_AT_EPOCH   = 8326
BSTAR          = .36517927E-3
MEAN_MOTION_DOT = .4895E-4
MEAN_MOTION_DDOT = 0

CCSDS_OMM_VERS = 2.0
CREATION_DATE  = 
ORIGINATOR     = 

OBJECT_NAME    = OAO 2
OBJECT_ID      = 1968-110A
CENTER_NAME    = EARTH
REF_FRAME      = TEME
TIME_SYSTEM    = UTC
MEAN_ELEMENT_THEORY = SGP/SGP4

EPOCH          = 2026-01-23T17:36:34.627968
MEAN_MOTION    = 14.47275139
ECCENTRICITY   = .00056711
INCLINATION    = 34.9922
RA_OF_ASC_NODE = 156.2158
ARG_OF_PERICENTER = 203.7804
MEAN_ANOMALY   = 156.2625

EPHEMERIS_TYPE = 0
CLASSIFICATION_TYPE = U
NORAD_CAT_ID   = 3597
ELEMENT_SET_NO = 999
REV_AT_EPOCH   = 1258
BSTAR          = .14370136E-3
MEAN_MOTION_DOT = .514E-5
MEAN_MOTION_DDOT = 0

CCSDS_OMM_VERS = 2.0
CREATION_DATE  = 
ORIGINATOR     = 

OBJECT_NAME    = ISIS 1
OBJECT_ID      = 1969-009A
CENTER_NAME    = EARTH
REF_FRAME      = TEME
TIME_SYSTEM    = UTC
MEAN_ELEMENT_THEORY = SGP/SGP4

EPOCH          = 2026-01-23T18:04:32.640384
MEAN_MOTION    = 11.30386790
ECCENTRICITY   = .17078348
INCLINATION    = 88.4535
RA_OF_ASC_NODE = 160.2054
ARG_OF_PERICENTER = 179.8359
MEAN_ANOMALY   = 180.3625

EPHEMERIS_TYPE = 0
CLASSIFICATION_TYPE = U
NORAD_CAT_ID   = 3669
ELEMENT_SET_NO = 999
REV_AT_EPOCH   = 34345
BSTAR          = .49221766E-3
MEAN_MOTION_DOT = .699E-5
MEAN_MOTION_DDOT = 0

CCSDS_OMM_VERS = 2.0
CREATION_DATE  = 
ORIGINATOR     = 

OBJECT_NAME    = SERT 2
OBJECT_ID      = 1970-009A
CENTER_NAME    = EARTH
REF_FRAME      = TEME
TIME_SYSTEM    = UTC
MEAN_ELEMENT_THEORY = SGP/SGP4

EPOCH          = 2026-01-23T20:15:16.998336
MEAN_MOTION    = 13.58724538
ECCENTRICITY   = .00040629
INCLINATION    = 99.2704
RA_OF_ASC_NODE = 329.4055
ARG_OF_PERICENTER = 283.8915
MEAN_ANOMALY   = 89.3424

EPHEMERIS_TYPE = 0
CLASSIFICATION_TYPE = U
NORAD_CAT_ID   = 4327
ELEMENT_SET_NO = 999
REV_AT_EPOCH   = 77380
BSTAR          = .17232519E-3
MEAN_MOTION_DOT = .85E-6
MEAN_MOTION_DDOT = 0

CCSDS_OMM_VERS = 2.0
CREATION_DATE  = 
ORIGINATOR     = 

OBJECT_NAME    = SL-3 R/B
OBJECT_ID      = 1971-028B
CENTER_NAME    = EARTH
REF_FRAME      = TEME
TIME_SYSTEM    = UTC
MEAN_ELEMENT_THEORY = SGP/SGP4

EPOCH          = 2026-01-23T22:16:40.429344
MEAN_MOTION    = 15.57567463
ECCENTRICITY   = .00180375
INCLINATION    = 81.2366
RA_OF_ASC_NODE = 107.1686
ARG_OF_PERICENTER = 90.3386
MEAN_ANOMALY   = 269.9932

EPHEMERIS_TYPE = 0
CLASSIFICATION_TYPE = U
NORAD_CAT_ID   = 5118
ELEMENT_SET_NO = 999
REV_AT_EPOCH   = 98169
BSTAR          = .66792851E-3
MEAN_MOTION_DOT = .49839E-3
MEAN_MOTION_DDOT = 0

CCSDS_OMM_VERS = 2.0
CREATION_DATE  = 
ORIGINATOR     = 

OBJECT_NAME    = ASTEX 1
OBJECT_ID      = 1971-089A
CENTER_NAME    = EARTH
REF_FRAME      = TEME
TIME_SYSTEM    = UTC
MEAN_ELEMENT_THEORY = SGP/SGP4

EPOCH          = 2026-01-23T08:49:35.023008
MEAN_MOTION    = 14.50706860
ECCENTRICITY   = .00137868
INCLINATION    = 92.7156
RA_OF_ASC_NODE = 137.0934
ARG_OF_PERICENTER = 232.4924
MEAN_ANOMALY   = 127.5030

EPHEMERIS_TYPE = 0
CLASSIFICATION_TYPE = U
NORAD_CAT_ID   = 5560
ELEMENT_SET_NO = 999
REV_AT_EPOCH   = 85573
BSTAR          = .31633307E-3
MEAN_MOTION_DOT = .1243E-4
MEAN_MOTION_DDOT = 0

CCSDS_OMM_VERS = 2.0
CREATION_DATE  = 
ORIGINATOR     = 

OBJECT_NAME    = SL-8 R/B
OBJECT_ID      = 1971-119B
CENTER_NAME    = EARTH
REF_FRAME      = TEME
TIME_SYSTEM    = UTC
MEAN_ELEMENT_THEORY = SGP/SGP4

EPOCH          = 2026-01-23T21:32:11.028768
MEAN_MOTION    = 14.36648117
ECCENTRICITY   = .0555512
INCLINATION    = 73.8862
RA_OF_ASC_NODE = 259.3698
ARG_OF_PERICENTER = 235.1491
MEAN_ANOMALY   = 119.6232

EPHEMERIS_TYPE = 0
CLASSIFICATION_TYPE = U
NORAD_CAT_ID   = 5730
ELEMENT_SET_NO = 999
REV_AT_EPOCH   = 64905
BSTAR          = .5307709E-3
MEAN_MOTION_DOT = .10219E-3
MEAN_MOTION_DDOT = 0

CCSDS_OMM_VERS = 2.0
CREATION_DATE  = 
ORIGINATOR     = 

OBJECT_NAME    = OAO 3 (COPERNICUS)
OBJECT_ID      = 1972-065A
CENTER_NAME    = EARTH
REF_FRAME      = TEME
TIME_SYSTEM    = UTC
MEAN_ELEMENT_THEORY = SGP/SGP4

EPOCH          = 2026-01-23T21:23:36.453696
MEAN_MOTION    = 14.59952704
ECCENTRICITY   = .00062644
INCLINATION    = 35.0038
RA_OF_ASC_NODE = 192.5404
ARG_OF_PERICENTER = 159.8125
MEAN_ANOMALY   = 354.4781

EPHEMERIS_TYPE = 0
CLASSIFICATION_TYPE = U
NORAD_CAT_ID   = 6153
ELEMENT_SET_NO = 999
REV_AT_EPOCH   = 83964
BSTAR          = .17161854E-3
MEAN_MOTION_DOT = .814E-5
MEAN_MOTION_DDOT = 0

